[{"name":"PARS 1","l1":"1 59065U 24039Q   26200.87002031  .00006586  00000+0  13515-3 0  9996","l2":"2 59065  97.4846 182.8391 0009191  11.2154 348.9298 15.46351156133693","cat":"other"},{"name":"SITRO-AIS 25","l1":"1 59066U 24039R   26200.86939781  .00001328  00000+0  10547-3 0  9998","l2":"2 59066  95.3889 257.5505 0143181 213.0006 146.2224 14.93657986129606","cat":"communications"},{"name":"SITRO-AIS 26","l1":"1 59067U 24039S   26200.87528227  .00001328  00000+0  10593-3 0  9990","l2":"2 59067  95.3890 257.4454 0143513 213.5976 145.6088 14.93449153129595","cat":"communications"},{"name":"SITRO-AIS 27","l1":"1 59068U 24039T   26200.83630992  .00001861  00000+0  14599-3 0  9992","l2":"2 59068  95.3893 257.7057 0142634 212.2551 146.9894 14.93873724129616","cat":"communications"},{"name":"SITRO-AIS 28","l1":"1 59071U 24039U   26200.87999970  .00001402  00000+0  11065-3 0  9990","l2":"2 59071  95.3893 257.7848 0142510 211.9359 147.3171 14.93908012129626","cat":"communications"},{"name":"MARAFON-D GVM","l1":"1 59072U 24039V   26200.82550634  .00000133  00000+0  32942-4 0  9994","l2":"2 59072  88.9827 279.9218 0014961 219.2817 140.7303 14.46023136125901","cat":"communications"},{"name":"HORACIO","l1":"1 59098U 24043A   26200.80453157  .00000332  00000+0  32760-4 0  9996","l2":"2 59098  97.8567 332.8012 0009060 274.3476  85.6711 14.98645554129553","cat":"other"},{"name":"MUSAT-2","l1":"1 59099U 24043B   26200.81910667  .00003279  00000+0  21195-3 0  9994","l2":"2 59099  97.8642 340.2483 0006604 213.5865 146.4945 15.08942202130011","cat":"other"},{"name":"ICEYE-X38","l1":"1 59100U 24043C   26200.85458786  .00002000  00000+0  11687-3 0  9996","l2":"2 59100  97.8445 345.5131 0001944   7.0288 353.0969 15.13113699116618","cat":"science"},{"name":"ICEYE-X37","l1":"1 59102U 24043E   26200.73267561  .00002141  00000+0  14990-3 0  9990","l2":"2 59102  97.8349 338.2557 0013932 257.2403 102.7267 15.06308896129983","cat":"science"},{"name":"ICEYE-X36","l1":"1 59103U 24043F   26200.85001516  .00002070  00000+0  14163-3 0  9993","l2":"2 59103  97.8408 339.5153 0005652 196.0546 164.0502 15.07254996130060","cat":"science"},{"name":"PE2_FLT2  (TYVAK-0262)","l1":"1 59104U 24043G   26200.79974561  .00000749  00000+0  69695-4 0  9998","l2":"2 59104  97.8440 331.5794 0004679 302.5116  57.5653 14.97356466129531","cat":"other"},{"name":"PE2_FLT1 (TYVAK-0261)","l1":"1 59105U 24043H   26200.59965139  .00000620  00000+0  58521-4 0  9992","l2":"2 59105  97.8426 331.3380 0004522 297.5397  62.5365 14.97343623129500","cat":"other"},{"name":"RROCI-2","l1":"1 59106U 24043J   26200.33921035  .00000479  00000+0  43406-4 0  9990","l2":"2 59106  97.8548 333.3794 0010512 271.6606  88.3413 15.00071954129587","cat":"other"},{"name":"BRO-13","l1":"1 59107U 24043K   26200.85293102  .00001048  00000+0  97092-4 0  9998","l2":"2 59107  97.8536 331.9826 0007409 243.9776 116.0682 14.96661060129502","cat":"other"},{"name":"BRO-12","l1":"1 59108U 24043L   26200.84372964  .00001043  00000+0  96093-4 0  9997","l2":"2 59108  97.8518 332.1433 0006997 236.5994 123.4558 14.96901241129525","cat":"other"},{"name":"SONATE-2","l1":"1 59112U 24043Q   26200.40440229  .00027038  00000+0  32202-3 0  9997","l2":"2 59112  97.5568 352.8429 0006650  92.9788 267.2230 15.61057540132915","cat":"other"},{"name":"CONTECSAT-1","l1":"1 59117U 24043V   26200.83931316  .00005379  00000+0  14992-3 0  9991","l2":"2 59117  97.5687 342.7983 0011502 117.0995 243.1424 15.37162914132267","cat":"other"},{"name":"TIGER-8","l1":"1 59120U 24043Y   26200.40859804  .00005149  00000+0  11030-3 0  9994","l2":"2 59120  97.5582 350.3250 0008894  90.4384 269.7883 15.45213052132760","cat":"other"},{"name":"LYNK TOWER 5","l1":"1 59121U 24043Z   26200.35401972  .00003165  00000+0  10807-3 0  9995","l2":"2 59121  97.5677 338.4729 0012229 130.2475 229.9837 15.31032256131963","cat":"other"},{"name":"NUSAT-44 (MARIA MITCHE*)","l1":"1 59122U 24043AA  26200.84751718  .00005867  00000+0  20525-3 0  9995","l2":"2 59122  97.5491 341.6115 0006639 118.4523 241.7386 15.29904417132262","cat":"other"},{"name":"LYNK TOWER 6","l1":"1 59123U 24043AB  26200.81580367  .00003013  00000+0  10166-3 0  9994","l2":"2 59123  97.5640 338.4492 0011579 125.0936 235.1392 15.31458955132024","cat":"other"},{"name":"VSP ROSE","l1":"1 59124U 24043AC  26200.83164729  .00002260  00000+0  83113-4 0  9993","l2":"2 59124  97.5658 337.7425 0011856 127.6351 232.5966 15.28922241131970","cat":"other"},{"name":"TRANSPORTER-10 OBJECT AD","l1":"1 59125U 24043AD  26200.63155125  .00004479  00000+0  12807-3 0  9997","l2":"2 59125  97.5682 342.5282 0010494 115.1021 245.1313 15.36479904132245","cat":"other"},{"name":"YAM-6","l1":"1 59126U 24043AE  26200.85567978  .00005001  00000+0  13749-3 0  9993","l2":"2 59126  97.5607 342.9165 0009663 110.9522 249.2757 15.37648873132333","cat":"other"},{"name":"JACKAL X-1L-001","l1":"1 59127U 24043AF  26200.84338191  .00009560  00000+0  20151-3 0  9995","l2":"2 59127  97.5626 347.1639 0008009 102.7458 257.4686 15.45438615132598","cat":"other"},{"name":"TRANSPORTER-10 OBJECT AG","l1":"1 59128U 24043AG  26200.62911744  .00003487  00000+0  11365-3 0  9992","l2":"2 59128  97.5687 340.0271 0011154 122.0628 238.1699 15.32472445132088","cat":"other"},{"name":"APEX ARIES 1","l1":"1 59129U 24043AH  26200.86597269  .00016787  00000+0  23145-3 0  9997","l2":"2 59129  97.5514 352.9633 0006365  91.6656 268.5328 15.57271092133003","cat":"other"},{"name":"GHOST-5","l1":"1 59130U 24043AJ  26200.65700341  .00008152  00000+0  18261-3 0  9993","l2":"2 59130  97.5635 346.3757 0008577 103.3423 256.8782 15.43683256132527","cat":"other"},{"name":"MESON-1","l1":"1 59131U 24043AK  26200.75076245  .00003068  00000+0  10355-3 0  9991","l2":"2 59131  97.5688 339.5589 0011405 122.3094 237.9253 15.31446231132061","cat":"other"},{"name":"LIZZIESAT-1 (LS-1)","l1":"1 59132U 24043AL  26200.78531321  .00001682  00000+0  64958-4 0  9995","l2":"2 59132  97.5675 337.0598 0011991 126.4166 233.8181 15.27674982131915","cat":"other"},{"name":"GHOST-4","l1":"1 59133U 24043AM  26200.65214513  .00008151  00000+0  17979-3 0  9991","l2":"2 59133  97.5647 346.8712 0008945 102.2819 257.9431 15.44141962132544","cat":"other"},{"name":"JACKAL X-1L-002","l1":"1 59134U 24043AN  26200.37565812  .00010393  00000+0  20591-3 0  9997","l2":"2 59134  97.5616 347.7304 0008083  96.4758 263.7412 15.47226020132598","cat":"other"},{"name":"VSP RF A1","l1":"1 59135U 24043AP  26200.82735022  .00001717  00000+0  72809-4 0  9990","l2":"2 59135  97.5465 337.4766 0002601 105.0766 255.0759 15.24514834131961","cat":"other"},{"name":"VSP RF C1","l1":"1 59136U 24043AQ  26200.57757853  .00002227  00000+0  80893-4 0  9998","l2":"2 59136  97.5648 339.0304 0006987 117.4263 242.7688 15.29380351132034","cat":"other"},{"name":"VSP RF B1","l1":"1 59137U 24043AR  26200.60429958  .00001817  00000+0  74011-4 0  9994","l2":"2 59137  97.5655 337.9515 0006287 113.7235 246.4663 15.25802125131964","cat":"other"},{"name":"TIGER-7","l1":"1 59141U 24043AV  26200.68976916  .00006511  00000+0  12037-3 0  9993","l2":"2 59141  97.5521 353.1511 0006669  64.3278 295.8661 15.49408513133001","cat":"other"},{"name":"LEMUR-2-JOHNNYTRUONG","l1":"1 59146U 24043BA  26200.38017769  .00024963  00000+0  27854-3 0  9991","l2":"2 59146  97.5404 354.1407 0003826  81.8636 278.3056 15.62784650133069","cat":"communications"},{"name":"HAMMER","l1":"1 59148U 24043BC  26200.87654351  .00013301  00000+0  20552-3 0  9993","l2":"2 59148  97.5465 351.3026 0004921  93.5132 266.6684 15.54227464132884","cat":"other"},{"name":"EXO-0","l1":"1 59175U 23174DK  26200.73069446  .00004826  00000+0  14339-3 0  9995","l2":"2 59175  97.3806 280.9216 0010145  61.6151 298.6114 15.35205321150038","cat":"other"},{"name":"STRIX-3","l1":"1 59224U 24047A   26200.90432304  .00004328  00000+0  20485-3 0  9992","l2":"2 59224  97.6643 177.0769 0011495 317.0657  42.9680 15.19853795129717","cat":"other"},{"name":"YUNHAI-2 02A","l1":"1 59280U 24052A   26200.85578683 -.00000144  00000+0  70127-5 0  9998","l2":"2 59280  50.0095 304.2664 0011734 259.4947 100.4645 14.27969986102897","cat":"science"},{"name":"YUNHAI-2 02B","l1":"1 59281U 24052B   26200.83017986 -.00000148  00000+0  51428-5 0  9998","l2":"2 59281  50.0091 244.1620 0004926 301.2383  58.8049 14.27983651121275","cat":"science"},{"name":"YUNHAI-2 02C","l1":"1 59282U 24052C   26200.87723256 -.00000144  00000+0  70150-5 0  9996","l2":"2 59282  50.0101   3.8983 0006287 276.2088  83.8111 14.27973169119475","cat":"science"},{"name":"YUNHAI-2 02D","l1":"1 59283U 24052D   26200.85182962 -.00000114  00000+0  19073-4 0  9991","l2":"2 59283  50.0069 123.9228 0004848 337.3617  22.7084 14.28005994123067","cat":"science"},{"name":"YUNHAI-2 02E","l1":"1 59284U 24052E   26200.80852731 -.00000142  00000+0  77027-5 0  9990","l2":"2 59284  50.0087 184.5532 0011670 174.1583 185.9469 14.27973989111590","cat":"science"},{"name":"YUNHAI-2 02F","l1":"1 59285U 24052F   26200.83281560 -.00000142  00000+0  75394-5 0  9995","l2":"2 59285  50.0114  64.6088 0005149 296.8357  63.2031 14.27999744123820","cat":"science"},{"name":"MOLA","l1":"1 59289U 24053B   26200.80066454  .00030505  00000+0  34602-3 0  9990","l2":"2 59289  49.9846 124.1090 0003339 107.0040 253.1297 15.62043607126598","cat":"other"},{"name":"AEROCUBE 16A","l1":"1 59290U 24053C   26200.26210514  .00008130  00000+0  17971-3 0  9999","l2":"2 59290  49.9879 161.5017 0003074  99.3088 260.8223 15.44696855126066","cat":"science"},{"name":"AEROCUBE 16B","l1":"1 59291U 24053D   26200.46285833  .00006725  00000+0  15040-3 0  9991","l2":"2 59291  49.9901 160.7116 0003019  95.8849 264.2459 15.44660552126175","cat":"science"},{"name":"YUNHAI-3 02","l1":"1 59343U 24058A   26200.89606655 -.00000042  00000+0  95000-6 0  9994","l2":"2 59343  98.8204 208.2920 0000427  61.1169 299.0046 14.13328111119362","cat":"science"}]